start=new Date('2022-10-28T00:00:00.000Z').valueOf();
sats=[{"APOAPSIS":"410.061","INCLINATION":"53.2173","COUNTRY_CODE":"US","TLE_LINE1":"1 53566U 22101AR  22300.91667824 -.01128333  00000-0 -19999-1 0  9992","RCS_SIZE":"LARGE","SEMIMAJOR_AXIS":"6787.327","NORAD_CAT_ID":"53566","SITE":"AFETR","OBJECT_TYPE":"PAYLOAD","OBJECT_NAME":"STARLINK-4576","MEAN_ELEMENT_THEORY":"SGP4","PERIAPSIS":"408.323","RA_OF_ASC_NODE":"173.2477","MEAN_ANOMALY":"148.2359","EPOCH":"2022-10-27T22:00:00.999936","CENTER_NAME":"EARTH","MEAN_MOTION":"15.52582205","GP_ID":"216338322","TIME_SYSTEM":"UTC","LAUNCH_DATE":"2022-08-19","DECAY_DATE":null,"REF_FRAME":"TEME","ECCENTRICITY":"0.00012800","PERIOD":"92.749","EPHEMERIS_TYPE":"0","ARG_OF_PERICENTER":"84.9000","ELEMENT_SET_NO":"999","CLASSIFICATION_TYPE":"U","REV_AT_EPOCH":"130","MEAN_MOTION_DDOT":"0.0000000000000","OBJECT_ID":"2022-101AR","TLE_LINE2":"2 53566  53.2173 173.2477 0001280  84.9000 148.2359 15.52582205  1302","FILE":"3636022","BSTAR":"-0.01999900000000","MEAN_MOTION_DOT":"-0.01128333"},{"CENTER_NAME":"EARTH","MEAN_ANOMALY":"155.9282","EPOCH":"2022-10-27T22:00:00.999936","MEAN_MOTION":"15.52476056","LAUNCH_DATE":"2022-08-19","DECAY_DATE":null,"GP_ID":"216339372","TIME_SYSTEM":"UTC","EPHEMERIS_TYPE":"0","PERIOD":"92.755","ECCENTRICITY":"0.00013260","REF_FRAME":"TEME","CLASSIFICATION_TYPE":"U","ELEMENT_SET_NO":"999","REV_AT_EPOCH":"130","ARG_OF_PERICENTER":"72.1803","OBJECT_ID":"2022-101AS","TLE_LINE2":"2 53567  53.2173 173.2574 0001326  72.1803 155.9282 15.52476056  1308","MEAN_MOTION_DDOT":"0.0000000000000","MEAN_MOTION_DOT":"-0.01128178","BSTAR":"-0.02007300000000","FILE":"3636022","APOAPSIS":"410.401","COUNTRY_CODE":"US","INCLINATION":"53.2173","TLE_LINE1":"1 53567U 22101AS  22300.91667824 -.01128178  00000-0 -20073-1 0  9995","RCS_SIZE":"LARGE","SEMIMAJOR_AXIS":"6787.636","SITE":"AFETR","NORAD_CAT_ID":"53567","OBJECT_TYPE":"PAYLOAD","RA_OF_ASC_NODE":"173.2574","PERIAPSIS":"408.601","MEAN_ELEMENT_THEORY":"SGP4","OBJECT_NAME":"STARLINK-4585"},{"MEAN_MOTION":"15.52689497","CENTER_NAME":"EARTH","EPOCH":"2022-10-27T22:00:00.999936","MEAN_ANOMALY":"185.2970","DECAY_DATE":null,"LAUNCH_DATE":"2022-08-19","TIME_SYSTEM":"UTC","GP_ID":"216338917","ELEMENT_SET_NO":"999","CLASSIFICATION_TYPE":"U","REV_AT_EPOCH":"130","ARG_OF_PERICENTER":"52.8872","ECCENTRICITY":"0.00014880","REF_FRAME":"TEME","EPHEMERIS_TYPE":"0","PERIOD":"92.742","BSTAR":"-0.01992000000000","MEAN_MOTION_DOT":"-0.01128342","FILE":"3636022","TLE_LINE2":"2 53568  53.2173 173.2376 0001488  52.8872 185.2970 15.52689497  1304","OBJECT_ID":"2022-101AT","MEAN_MOTION_DDOT":"0.0000000000000","INCLINATION":"53.2173","COUNTRY_CODE":"US","APOAPSIS":"409.889","SEMIMAJOR_AXIS":"6787.014","RCS_SIZE":"LARGE","TLE_LINE1":"1 53568U 22101AT  22300.91667824 -.01128342  00000-0 -19920-1 0  9998","MEAN_ELEMENT_THEORY":"SGP4","PERIAPSIS":"407.869","RA_OF_ASC_NODE":"173.2376","OBJECT_NAME":"STARLINK-4583","OBJECT_TYPE":"PAYLOAD","SITE":"AFETR","NORAD_CAT_ID":"53568"},{"COUNTRY_CODE":"US","INCLINATION":"53.2173","APOAPSIS":"410.213","SEMIMAJOR_AXIS":"6787.433","TLE_LINE1":"1 53569U 22101AU  22300.91667824 -.01128173  00000-0 -20022-1 0  9996","RCS_SIZE":"LARGE","OBJECT_NAME":"STARLINK-4582","RA_OF_ASC_NODE":"173.2508","PERIAPSIS":"408.383","MEAN_ELEMENT_THEORY":"SGP4","SITE":"AFETR","OBJECT_TYPE":"PAYLOAD","NORAD_CAT_ID":"53569","MEAN_MOTION":"15.52545723","EPOCH":"2022-10-27T22:00:00.999936","MEAN_ANOMALY":"163.6979","CENTER_NAME":"EARTH","TIME_SYSTEM":"UTC","GP_ID":"216338564","LAUNCH_DATE":"2022-08-19","DECAY_DATE":null,"ARG_OF_PERICENTER":"67.7321","ELEMENT_SET_NO":"999","CLASSIFICATION_TYPE":"U","REV_AT_EPOCH":"130","PERIOD":"92.751","EPHEMERIS_TYPE":"0","ECCENTRICITY":"0.00013480","REF_FRAME":"TEME","FILE":"3636022","MEAN_MOTION_DOT":"-0.01128173","BSTAR":"-0.02002200000000","MEAN_MOTION_DDOT":"0.0000000000000","TLE_LINE2":"2 53569  53.2173 173.2508 0001348  67.7321 163.6979 15.52545723  1303","OBJECT_ID":"2022-101AU"},{"MEAN_MOTION":"15.52652794","EPOCH":"2022-10-27T22:00:00.999936","MEAN_ANOMALY":"159.8527","CENTER_NAME":"EARTH","TIME_SYSTEM":"UTC","GP_ID":"216338740","LAUNCH_DATE":"2022-08-19","DECAY_DATE":null,"ARG_OF_PERICENTER":"76.6226","CLASSIFICATION_TYPE":"U","ELEMENT_SET_NO":"999","REV_AT_EPOCH":"130","EPHEMERIS_TYPE":"0","PERIOD":"92.744","REF_FRAME":"TEME","ECCENTRICITY":"0.00012950","FILE":"3636022","MEAN_MOTION_DOT":"-0.01128301","BSTAR":"-0.01994700000000","MEAN_MOTION_DDOT":"0.0000000000000","OBJECT_ID":"2022-101AV","TLE_LINE2":"2 53570  53.2173 173.2411 0001295  76.6226 159.8527 15.52652794  1305","COUNTRY_CODE":"US","INCLINATION":"53.2173","APOAPSIS":"409.865","SEMIMAJOR_AXIS":"6787.121","RCS_SIZE":"LARGE","TLE_LINE1":"1 53570U 22101AV  22300.91667824 -.01128301  00000-0 -19947-1 0  9995","OBJECT_NAME":"STARLINK-4550","RA_OF_ASC_NODE":"173.2411","MEAN_ELEMENT_THEORY":"SGP4","PERIAPSIS":"408.107","OBJECT_TYPE":"PAYLOAD","SITE":"AFETR","NORAD_CAT_ID":"53570"},{"GP_ID":"216339089","TIME_SYSTEM":"UTC","LAUNCH_DATE":"2022-08-19","DECAY_DATE":null,"MEAN_ANOMALY":"153.4903","EPOCH":"2022-10-27T22:00:00.999936","CENTER_NAME":"EARTH","MEAN_MOTION":"15.52617648","MEAN_MOTION_DDOT":"0.0000000000000","OBJECT_ID":"2022-101AW","TLE_LINE2":"2 53571  53.2173 173.2440 0001284  81.3207 153.4903 15.52617648  1305","FILE":"3636022","BSTAR":"-0.01997300000000","MEAN_MOTION_DOT":"-0.01128322","REF_FRAME":"TEME","ECCENTRICITY":"0.00012840","PERIOD":"92.747","EPHEMERIS_TYPE":"0","ARG_OF_PERICENTER":"81.3207","REV_AT_EPOCH":"130","CLASSIFICATION_TYPE":"U","ELEMENT_SET_NO":"999","RCS_SIZE":"LARGE","TLE_LINE1":"1 53571U 22101AW  22300.91667824 -.01128322  00000-0 -19973-1 0  9998","SEMIMAJOR_AXIS":"6787.224","APOAPSIS":"409.960","INCLINATION":"53.2173","COUNTRY_CODE":"US","OBJECT_TYPE":"PAYLOAD","SITE":"AFETR","NORAD_CAT_ID":"53571","OBJECT_NAME":"STARLINK-4584","PERIAPSIS":"408.217","MEAN_ELEMENT_THEORY":"SGP4","RA_OF_ASC_NODE":"173.2440"},{"LAUNCH_DATE":"2022-08-19","DECAY_DATE":null,"GP_ID":"216339201","TIME_SYSTEM":"UTC","CENTER_NAME":"EARTH","EPOCH":"2022-10-27T22:00:00.999936","MEAN_ANOMALY":"173.1071","MEAN_MOTION":"15.52797353","TLE_LINE2":"2 53572  53.2173 173.2275 0001315  70.1242 173.1071 15.52797353  1309","OBJECT_ID":"2022-101AX","MEAN_MOTION_DDOT":"0.0000000000000","MEAN_MOTION_DOT":"-0.01128447","BSTAR":"-0.01984500000000","FILE":"3636022","PERIOD":"92.736","EPHEMERIS_TYPE":"0","REF_FRAME":"TEME","ECCENTRICITY":"0.00013150","ELEMENT_SET_NO":"999","CLASSIFICATION_TYPE":"U","REV_AT_EPOCH":"130","ARG_OF_PERICENTER":"70.1242","RCS_SIZE":"LARGE","TLE_LINE1":"1 53572U 22101AX  22300.91667824 -.01128447  00000-0 -19845-1 0  9995","SEMIMAJOR_AXIS":"6786.700","APOAPSIS":"409.457","COUNTRY_CODE":"US","INCLINATION":"53.2173","SITE":"AFETR","OBJECT_TYPE":"PAYLOAD","NORAD_CAT_ID":"53572","RA_OF_ASC_NODE":"173.2275","PERIAPSIS":"407.673","MEAN_ELEMENT_THEORY":"SGP4","OBJECT_NAME":"STARLINK-4555"},{"DECAY_DATE":null,"LAUNCH_DATE":"2022-08-19","TIME_SYSTEM":"UTC","GP_ID":"216338147","MEAN_MOTION":"15.52726049","CENTER_NAME":"EARTH","MEAN_ANOMALY":"163.6637","EPOCH":"2022-10-27T22:00:00.999936","BSTAR":"-0.01989500000000","MEAN_MOTION_DOT":"-0.01128358","FILE":"3636022","OBJECT_ID":"2022-101AY","TLE_LINE2":"2 53573  53.2173 173.2337 0001291  76.2228 163.6637 15.52726049  1309","MEAN_MOTION_DDOT":"0.0000000000000","CLASSIFICATION_TYPE":"U","REV_AT_EPOCH":"130","ELEMENT_SET_NO":"999","ARG_OF_PERICENTER":"76.2228","REF_FRAME":"TEME","ECCENTRICITY":"0.00012910","EPHEMERIS_TYPE":"0","PERIOD":"92.740","SEMIMAJOR_AXIS":"6786.908","RCS_SIZE":"LARGE","TLE_LINE1":"1 53573U 22101AY  22300.91667824 -.01128358  00000-0 -19895-1 0  9992","INCLINATION":"53.2173","COUNTRY_CODE":"US","APOAPSIS":"409.649","PERIAPSIS":"407.897","MEAN_ELEMENT_THEORY":"SGP4","RA_OF_ASC_NODE":"173.2337","OBJECT_NAME":"STARLINK-4547","SITE":"AFETR","OBJECT_TYPE":"PAYLOAD","NORAD_CAT_ID":"53573"},{"CENTER_NAME":"EARTH","EPOCH":"2022-10-27T22:00:00.999936","MEAN_ANOMALY":"156.8892","MEAN_MOTION":"15.52868923","LAUNCH_DATE":"2022-08-19","DECAY_DATE":null,"TIME_SYSTEM":"UTC","GP_ID":"216338323","PERIOD":"92.732","EPHEMERIS_TYPE":"0","REF_FRAME":"TEME","ECCENTRICITY":"0.00012590","ELEMENT_SET_NO":"999","CLASSIFICATION_TYPE":"U","REV_AT_EPOCH":"130","ARG_OF_PERICENTER":"89.6847","TLE_LINE2":"2 53574  53.2173 173.2208 0001259  89.6847 156.8892 15.52868923  1301","OBJECT_ID":"2022-101AZ","MEAN_MOTION_DDOT":"0.0000000000000","MEAN_MOTION_DOT":"-0.01128620","BSTAR":"-0.01979700000000","FILE":"3636022","APOAPSIS":"409.211","COUNTRY_CODE":"US","INCLINATION":"53.2173","TLE_LINE1":"1 53574U 22101AZ  22300.91667824 -.01128620  00000-0 -19797-1 0  9996","RCS_SIZE":"LARGE","SEMIMAJOR_AXIS":"6786.491","OBJECT_TYPE":"PAYLOAD","SITE":"AFETR","NORAD_CAT_ID":"53574","RA_OF_ASC_NODE":"173.2208","MEAN_ELEMENT_THEORY":"SGP4","PERIAPSIS":"407.502","OBJECT_NAME":"STARLINK-4559"},{"APOAPSIS":"409.536","COUNTRY_CODE":"US","INCLINATION":"53.2173","RCS_SIZE":"LARGE","TLE_LINE1":"1 53575U 22101BA  22300.91667824 -.01128474  00000-0 -19872-1 0  9998","SEMIMAJOR_AXIS":"6786.806","NORAD_CAT_ID":"53575","SITE":"AFETR","OBJECT_TYPE":"PAYLOAD","OBJECT_NAME":"STARLINK-4551","RA_OF_ASC_NODE":"173.2304","PERIAPSIS":"407.805","MEAN_ELEMENT_THEORY":"SGP4","MEAN_ANOMALY":"160.5054","EPOCH":"2022-10-27T22:00:00.999936","CENTER_NAME":"EARTH","MEAN_MOTION":"15.52761092","GP_ID":"216339373","TIME_SYSTEM":"UTC","DECAY_DATE":null,"LAUNCH_DATE":"2022-08-19","PERIOD":"92.738","EPHEMERIS_TYPE":"0","ECCENTRICITY":"0.00012750","REF_FRAME":"TEME","ARG_OF_PERICENTER":"81.0353","CLASSIFICATION_TYPE":"U","REV_AT_EPOCH":"130","ELEMENT_SET_NO":"999","MEAN_MOTION_DDOT":"0.0000000000000","OBJECT_ID":"2022-101BA","TLE_LINE2":"2 53575  53.2173 173.2304 0001275  81.0353 160.5054 15.52761092  1306","FILE":"3636022","MEAN_MOTION_DOT":"-0.01128474","BSTAR":"-0.01987200000000"}];
